0132P         2021 11 12.9919  1.696704  0.564082  216.5057  173.9806    5.3781  20250430  11.0  6.0  132P/Helin-Roman-Alu                                     MPEC 2024-BE0
0133P         2024 05 10.0995  2.670642  0.155683  131.8676  160.1011    1.3899  20250430  15.4  2.0  133P/Elst-Pizarro                                        MPC 94676
0134P         2030 01  8.7887  2.600370  0.585451   18.6666  201.9951    4.3333  20250430  11.5  4.0  134P/Kowal-Vavrova                                       MPC 89012
0135P         2022 04  6.3086  2.685511  0.293552   22.3823  213.0199    6.0632  20250430   7.0  8.0  135P/Shoemaker-Levy                                      MPEC 2024-C04
0136P         2025 01  3.3956  2.958420  0.293124  225.3058  137.4217    9.4274  20250430  11.0  4.0  136P/Mueller                                             MPC182888
0137P         2028 07 29.2675  1.931468  0.573023  141.2199  232.9266    4.8599  20250430  11.0  4.0  137P/Shoemaker-Levy                                      MPEC 2023-J29
0138P         2026 03 24.2942  1.694455  0.531561   95.6851  309.2720   10.0996  20250430  15.0  6.0  138P/Shoemaker-Levy                                      MPEC 2016-U66
0139P         2027 07 22.7330  3.392943  0.248323  165.9687  242.1807    2.3375  20250430   9.5  4.0  139P/Vaisala-Oterma                                      MPEC 2020-HN5
0140P         2031 10  5.5157  1.954066  0.695274  172.1615  343.3761    3.7015  20250430  11.5  6.0  140P/Bowell-Skiff                                        MPEC 2015-E14
0141P         2026 04 22.9666  0.807357  0.735906  153.6439  241.7763   13.9620  20250430  12.0 12.0  141P/Machholz                                            MPEC 2024-R10
0141P      a  2026 04 23.3312  0.807360  0.735924  241.9254  153.5065   13.9416  20250430  12.0 12.0  141P-A/Machholz                                          MPEC 2015-KD9
0141P      b  2026 04 15.3493  0.807662  0.735684  241.8144  153.5825   13.9856  20250430   9.0  4.0  141P-B/Machholz                                          MPC 24216
0141P      d  2026 05 18.5780  0.806708  0.736870  242.1738  153.2325   13.8334  20250430   9.0  4.0  141P-D/Machholz                                          MPC 37026
0141P      e  1994 09 19.2500  0.752528  0.750233  149.2667  246.1856   12.8152             9.0  4.0  141P-E/Machholz                                          MPEC 2015-R12
0141P      f  1994 09 19.1963  0.752528  0.750009  149.2374  246.1881   12.7898             9.0  4.0  141P-F/Machholz                                          MPEC 2015-R12
0141P      g  1994 09 19.1048  0.752528  0.749643  149.0784  246.3146   12.8259             9.0  4.0  141P-G/Machholz                                          MPEC 2015-R12
0141P      h  2015 08 24.3866  0.761562  0.746822  149.4500  246.0900   12.8431            18.5  4.0  141P-H/Machholz                                          MPC 95735
0141P      i  2026 04 13.6025  0.807195  0.735152  241.9352  153.4613   13.9416  20250430  17.5  4.0  141P-I/Machholz                                          MPEC 2022-SU8
0142P         2021 05 11.4190  2.521723  0.496003  174.0674  175.9589   12.2450  20250430   8.5  6.0  142P/Ge-Wang                                             MPEC 2024-C04
0143P         2026 12 25.2654  2.940594  0.384822  304.3219  242.6331    5.4762  20250430  13.5  2.0  143P/Kowal-Mrkos                                         MPC182888
0144P         2024 01 25.8164  1.399371  0.634968  216.3564  242.9245    3.9318  20250430   8.5  8.0  144P/Kushida                                             MPEC 2024-YC7
0145P         2026 01 31.8977  1.889845  0.542487   10.3759   26.7950   11.2765  20250430  13.5  4.0  145P/Shoemaker-Levy                                      MPC108598
0146P         2024 08  5.4230  1.418916  0.647576  317.0521   53.3635   23.1187  20250430  15.0  4.0  146P/Shoemaker-LINEAR                                    MPC182888
0147P         2023 12  7.4789  3.160393  0.211824  348.6005   91.6671    2.3115  20250430  14.0  4.0  147P/Kushida-Muramatsu                                   MPEC 2024-UQ8
0148P         2022 06 14.2468  1.627678  0.550386    8.0782   89.1952    3.6590  20250430  16.0  2.0  148P/Anderson-LINEAR                                     MPEC 2024-JU4
0149P         2026 12 16.6005  2.789619  0.324431   30.2545  143.7678   34.2339  20250430   8.0  8.0  149P/Mueller                                             MPEC 2023-J29
0150P         2024 03 12.5178  1.745443  0.549198  246.1237  272.0556   18.5484  20250430  13.5  4.0  150P/LONEOS                                              MPEC 2024-NE4
0151P         2029 08 17.8472  2.464440  0.572605  216.1564  143.1257    4.7255  20250430  10.0  6.0  151P/Helin                                               MPEC 2022-K19
0152P         2022 01 13.5496  3.108728  0.306964  164.4453   91.7758    9.8797  20250430  11.5  4.0  152P/Helin-Lawrence                                      MPC182888
0153P         2002 03 11.7613  0.497247  0.990147   34.2279   93.7983   28.4952  20250430   9.0  4.0  153P/Ikeya-Zhang                                         MPC 46101
0154P         2024 06 13.2252  1.552562  0.676300   47.9362  342.9965   17.6374  20250430   2.5 12.0  154P/Brewington                                          MPEC 2025-GB9
0155P         2019 11 17.2792  1.789808  0.727652   14.5293   97.1568    6.4106  20250430  10.0  4.8  155P/Shoemaker                                           MPEC 2022-YN2
0156P         2027 04 30.4618  1.333492  0.614892    0.5248   35.3355   17.2617  20250430  15.5  2.0  156P/Russell-LINEAR                                      MPEC 2023-J29
0157P         2022 09 10.1447  1.572408  0.556810  155.1742  287.4990   12.4241  20250430  10.0  4.0  157P/Tritton                                             MPEC 2024-D33
0157P      b  2022 09  8.3862  1.551666  0.499902  287.2042  153.8836   12.4251  20250430  15.7  4.0  157P-B/Tritton                                           MPEC 2022-VC5
0158P         2022 08 27.4934  5.007061  0.117683  228.3083  124.5442    7.4360  20250430   9.0  4.0  158P/Kowal-LINEAR                                        MPC182888
0159P         2018 05 26.1642  3.614971  0.382583    4.7218   54.9391   23.4844  20250430  10.0  4.0  159P/LONEOS                                              MPEC 2024-DC6
0160P         2027 04  7.2045  1.795174  0.525034   12.7820  333.3508   15.5954  20250430  15.5  2.0  160P/LINEAR                                              MPEC 2022-K19
0161P         2026 11 27.9785  1.266741  0.835810   47.0684    1.5167   95.8180  20250430   8.5  6.0  161P/Hartley-IRAS                                        MPC 75721
0162P         2026 05 17.8159  1.289465  0.582951  357.2359   30.8778   27.5541  20250430  12.0  4.0  162P/SidingSpring                                        MPEC 2025-A40
0163P         2026 11 23.9084  2.055594  0.453474  349.6298  102.0727   12.7212  20250430  14.5  4.0  163P/NEAT                                                MPEC 2021-S45
0164P         2025 05 27.4058  1.675100  0.541254  325.9539   88.2690   16.2774  20250430  11.0  4.0  164P/Christensen                                         MPEC 2024-TD8
0165P         2000 06 12.8915  6.784293  0.619168  125.8676    0.6857   15.9077  20250430  11.5  2.0  165P/LINEAR                                              MPC 75721
0166P         2002 06  7.1900  8.539560  0.382998  321.8466   64.4369   15.3782  20250430   5.5  4.0  166P/NEAT                                                MPC 75722
0167P         2001 03 28.5158 11.899245  0.267855  344.4723  295.8343   19.0758  20250430   9.5  2.0  167P/CINEOS                                              MPEC 2023-J29
0168P         2026 05 26.2396  1.358361  0.621285   15.0993  355.3906   21.5952  20250430  15.5  4.0  168P/Hergenrother                                        MPEC 2023-J29
0169P         2026 09 21.3162  0.603870  0.768065  218.1194  176.0609   11.2873  20250430  16.0  2.0  169P/NEAT                                                MPEC 2025-HB5
0170P         2023 04 15.8298  2.914616  0.305240  224.7713  142.6396   10.1282  20250430  12.0  4.0  170P/Christensen                                         MPEC 2025-GB9
0171P         2025 09 25.0527  1.766289  0.502734  347.0922  101.7004   21.9507  20250430  13.5  4.0  171P/Spahr                                               MPC102102
0172P         2025 11  2.5576  3.358130  0.204865  208.9007   30.8826   11.2233  20250430  13.0  4.0  172P/Yeung                                               MPEC 2025-HB5
0173P         2021 12 17.7555  4.215918  0.262353   29.2817  100.3463   16.4933  20250430   7.5  4.0  173P/Mueller                                             MPEC 2023-N01
0174P         2015 04 20.4387  5.864427  0.454924  163.4352  173.3360    4.3411  20250430   9.4  2.0  174P/Echeclus                                            MPC 92985
0175P         2026 09  3.0098  2.301608  0.376272   74.7286  109.8261    4.9262  20250430  14.0  4.0  175P/Hergenrother                                        MPC114608
0176P         2022 11 19.8721  2.582200  0.191864   34.4705  345.6340    0.2312  20250430  15.1  2.0  176P/LINEAR                                              MPC 89015
0177P         2006 08 30.6294  1.120951  0.954268   60.7532  271.8649   31.0076  20250430  15.0  4.0  177P/Barnard                                             MPEC 2020-L06
0178P         2027 06 21.3643  1.880681  0.482308  297.9609  102.7850   11.0924  20250430  13.5  4.0  178P/Hug-Bell                                            MPEC 2024-R10
0179P         2022 05 31.8700  4.123448  0.305465  297.2089  115.5087   19.8902  20250430   2.5  8.0  179P/Jedicke                                             MPEC 2024-EF7
0180P         2023 07 12.1249  2.499396  0.353804   94.6065   84.5593   16.8620  20250430  11.0  4.0  180P/NEAT                                                MPEC 2024-F34
